{
  "type": "FeatureCollection",
  "features": [
    {
      "type": "Feature",
      "properties": {
        "norad_id": 34540,
        "name": "IRIDIUM 33 DEB",
        "group": "iridium-33-debris",
        "lat": 77.487429811718,
        "lon": -31.29557043465489,
        "alt_km": 642.3570531917685,
        "timestamp": "2025-12-03T13:52:09.951532+00:00",
        "meta_object_name": "IRIDIUM 33 DEB",
        "meta_object_id": "1997-051JH",
        "meta_epoch": "2025-12-03T05:26:21.211296",
        "meta_mean_motion": 14.74981692,
        "meta_eccentricity": 0.0014801,
        "meta_inclination": 86.3092,
        "meta_ra_of_asc_node": 311.9555,
        "meta_arg_of_pericenter": 194.145,
        "meta_mean_anomaly": 180.1243,
        "meta_ephemeris_type": 0,
        "meta_classification_type": "U",
        "meta_norad_cat_id": 34540,
        "meta_element_set_no": 999,
        "meta_rev_at_epoch": 88881,
        "meta_bstar": 0.0021817841,
        "meta_mean_motion_dot": 0.00014731,
        "meta_mean_motion_ddot": 0,
        "tle_line1": "1 34540U 97051JH  25337.22663439  .00014731  00000+0  21818-2 0  9990",
        "tle_line2": "2 34540  86.3092 311.9555 0014801 194.1450 180.1243 14.74981692888816"
      },
      "geometry": {
        "type": "Point",
        "coordinates": [
          -31.29557043465489,
          77.487429811718
        ]
      }
    },
    {
      "type": "Feature",
      "properties": {
        "norad_id": 34648,
        "name": "IRIDIUM 33 DEB",
        "group": "iridium-33-debris",
        "lat": 11.19025542852939,
        "lon": 104.92798094136907,
        "alt_km": 982.7185204543357,
        "timestamp": "2025-12-03T13:52:09.951543+00:00",
        "meta_object_name": "IRIDIUM 33 DEB",
        "meta_object_id": "1997-051JZ",
        "meta_epoch": "2025-12-01T03:11:38.418720",
        "meta_mean_motion": 14.1087899,
        "meta_eccentricity": 0.01868529,
        "meta_inclination": 86.3903,
        "meta_ra_of_asc_node": 286.6295,
        "meta_arg_of_pericenter": 334.6513,
        "meta_mean_anomaly": 24.5588,
        "meta_ephemeris_type": 0,
        "meta_classification_type": "U",
        "meta_norad_cat_id": 34648,
        "meta_element_set_no": 999,
        "meta_rev_at_epoch": 84797,
        "meta_bstar": 0.0079356223,
        "meta_mean_motion_dot": 0.00016788,
        "meta_mean_motion_ddot": 0,
        "tle_line1": "1 34648U 97051JZ  25335.13308355  .00016788  00000+0  79356-2 0  9994",
        "tle_line2": "2 34648  86.3903 286.6295 0186852 334.6513  24.5588 14.10878990847973"
      },
      "geometry": {
        "type": "Point",
        "coordinates": [
          104.92798094136907,
          11.19025542852939
        ]
      }
    },
    {
      "type": "Feature",
      "properties": {
        "norad_id": 34651,
        "name": "IRIDIUM 33 DEB",
        "group": "iridium-33-debris",
        "lat": 69.04790758860517,
        "lon": -45.30344143194684,
        "alt_km": 853.6932124265468,
        "timestamp": "2025-12-03T13:52:09.951553+00:00",
        "meta_object_name": "IRIDIUM 33 DEB",
        "meta_object_id": "1997-051KC",
        "meta_epoch": "2025-12-02T05:19:54.206688",
        "meta_mean_motion": 14.25531146,
        "meta_eccentricity": 0.0141862,
        "meta_inclination": 86.2826,
        "meta_ra_of_asc_node": 145.0488,
        "meta_arg_of_pericenter": 237.4272,
        "meta_mean_anomaly": 121.3155,
        "meta_ephemeris_type": 0,
        "meta_classification_type": "U",
        "meta_norad_cat_id": 34651,
        "meta_element_set_no": 999,
        "meta_rev_at_epoch": 85746,
        "meta_bstar": 0.0036308,
        "meta_mean_motion_dot": 9.56e-05,
        "meta_mean_motion_ddot": 0,
        "tle_line1": "1 34651U 97051KC  25336.22215517  .00009560  00000+0  36308-2 0  9996",
        "tle_line2": "2 34651  86.2826 145.0488 0141862 237.4272 121.3155 14.25531146857462"
      },
      "geometry": {
        "type": "Point",
        "coordinates": [
          -45.30344143194684,
          69.04790758860517
        ]
      }
    },
    {
      "type": "Feature",
      "properties": {
        "norad_id": 34652,
        "name": "IRIDIUM 33 DEB",
        "group": "iridium-33-debris",
        "lat": 47.87161323187713,
        "lon": -11.850401582903759,
        "alt_km": 678.4319219574936,
        "timestamp": "2025-12-03T13:52:09.951565+00:00",
        "meta_object_name": "IRIDIUM 33 DEB",
        "meta_object_id": "1997-051KD",
        "meta_epoch": "2025-12-02T12:03:44.445600",
        "meta_mean_motion": 14.61898676,
        "meta_eccentricity": 0.00270627,
        "meta_inclination": 86.3312,
        "meta_ra_of_asc_node": 344.5601,
        "meta_arg_of_pericenter": 334.9096,
        "meta_mean_anomaly": 177.4047,
        "meta_ephemeris_type": 0,
        "meta_classification_type": "U",
        "meta_norad_cat_id": 34652,
        "meta_element_set_no": 999,
        "meta_rev_at_epoch": 88334,
        "meta_bstar": 0.0012168376,
        "meta_mean_motion_dot": 6.139e-05,
        "meta_mean_motion_ddot": 0,
        "tle_line1": "1 34652U 97051KD  25336.50259775  .00006139  00000+0  12168-2 0  9999",
        "tle_line2": "2 34652  86.3312 344.5601 0027062 334.9096 177.4047 14.61898676883341"
      },
      "geometry": {
        "type": "Point",
        "coordinates": [
          -11.850401582903759,
          47.87161323187713
        ]
      }
    },
    {
      "type": "Feature",
      "properties": {
        "norad_id": 34690,
        "name": "IRIDIUM 33 DEB",
        "group": "iridium-33-debris",
        "lat": 41.11141108765363,
        "lon": -142.1947115102661,
        "alt_km": 704.9552219679808,
        "timestamp": "2025-12-03T13:52:09.951576+00:00",
        "meta_object_name": "IRIDIUM 33 DEB",
        "meta_object_id": "1997-051KM",
        "meta_epoch": "2025-12-03T05:16:57.744192",
        "meta_mean_motion": 14.55035336,
        "meta_eccentricity": 0.0011766,
        "meta_inclination": 86.3793,
        "meta_ra_of_asc_node": 41.1284,
        "meta_arg_of_pericenter": 57.4796,
        "meta_mean_anomaly": 8.1983,
        "meta_ephemeris_type": 0,
        "meta_classification_type": "U",
        "meta_norad_cat_id": 34690,
        "meta_element_set_no": 999,
        "meta_rev_at_epoch": 87956,
        "meta_bstar": 0.00068018877,
        "meta_mean_motion_dot": 2.953e-05,
        "meta_mean_motion_ddot": 0,
        "tle_line1": "1 34690U 97051KM  25337.22011278  .00002953  00000+0  68019-3 0  9992",
        "tle_line2": "2 34690  86.3793  41.1284 0011766  57.4796   8.1983 14.55035336879568"
      },
      "geometry": {
        "type": "Point",
        "coordinates": [
          -142.1947115102661,
          41.11141108765363
        ]
      }
    },
    {
      "type": "Feature",
      "properties": {
        "norad_id": 34693,
        "name": "IRIDIUM 33 DEB",
        "group": "iridium-33-debris",
        "lat": 0.014796275361846868,
        "lon": -51.634193777684324,
        "alt_km": 490.25792839640417,
        "timestamp": "2025-12-03T13:52:09.951586+00:00",
        "meta_object_name": "IRIDIUM 33 DEB",
        "meta_object_id": "1997-051KQ",
        "meta_epoch": "2025-12-02T22:20:48.477696",
        "meta_mean_motion": 15.24488571,
        "meta_eccentricity": 0.0016088,
        "meta_inclination": 86.3048,
        "meta_ra_of_asc_node": 308.6845,
        "meta_arg_of_pericenter": 67.5745,
        "meta_mean_anomaly": 345.3417,
        "meta_ephemeris_type": 0,
        "meta_classification_type": "U",
        "meta_norad_cat_id": 34693,
        "meta_element_set_no": 999,
        "meta_rev_at_epoch": 88765,
        "meta_bstar": 0.0056534603,
        "meta_mean_motion_dot": 0.00141805,
        "meta_mean_motion_ddot": 0,
        "tle_line1": "1 34693U 97051KQ  25336.93111664  .00141805  00000+0  56535-2 0  9991",
        "tle_line2": "2 34693  86.3048 308.6845 0016088  67.5745 345.3417 15.24488571887653"
      },
      "geometry": {
        "type": "Point",
        "coordinates": [
          -51.634193777684324,
          0.014796275361846868
        ]
      }
    },
    {
      "type": "Feature",
      "properties": {
        "norad_id": 34696,
        "name": "IRIDIUM 33 DEB",
        "group": "iridium-33-debris",
        "lat": -39.76913874351327,
        "lon": 28.599121272250656,
        "alt_km": 713.671328220039,
        "timestamp": "2025-12-03T13:52:09.951597+00:00",
        "meta_object_name": "IRIDIUM 33 DEB",
        "meta_object_id": "1997-051KT",
        "meta_epoch": "2025-12-03T04:28:11.100576",
        "meta_mean_motion": 14.64206057,
        "meta_eccentricity": 0.00749149,
        "meta_inclination": 86.1857,
        "meta_ra_of_asc_node": 31.9639,
        "meta_arg_of_pericenter": 199.7908,
        "meta_mean_anomaly": 216.5568,
        "meta_ephemeris_type": 0,
        "meta_classification_type": "U",
        "meta_norad_cat_id": 34696,
        "meta_element_set_no": 999,
        "meta_rev_at_epoch": 86533,
        "meta_bstar": 0.0073652282,
        "meta_mean_motion_dot": 0.00040594,
        "meta_mean_motion_ddot": 0,
        "tle_line1": "1 34696U 97051KT  25337.18623959  .00040594  00000+0  73652-2 0  9999",
        "tle_line2": "2 34696  86.1857  31.9639 0074914 199.7908 216.5568 14.64206057865337"
      },
      "geometry": {
        "type": "Point",
        "coordinates": [
          28.599121272250656,
          -39.76913874351327
        ]
      }
    }
  ]
}